IRIDIUM 26              
1 24903U 97043A   25107.60995599  .00000645  00000+0  21061-3 0  9995
2 24903  86.3945 136.0742 0002136  90.1131 270.0311 14.37084379448045
IRIDIUM 22              
1 24907U 97043E   25107.55957410  .00000568  00000+0  18925-3 0  9992
2 24907  86.3955 139.5802 0002290  92.8938 267.2521 14.35906217448076
DUMMY MASS 1            
1 24925U 97048A   25107.58176725  .00000723  00000+0  77718-4 0  9991
2 24925  86.3384 163.3439 0007107  21.7953 338.3572 14.86929055496129
DUMMY MASS 2            
1 24926U 97048B   25107.60114480  .00000723  00000+0  78162-4 0  9999
2 24926  86.3387 164.9295 0008314  29.9557 330.2142 14.86681947495905
IRIDIUM 29              
1 24944U 97051A   25107.60383395  .00000695  00000+0  23059-3 0  9998
2 24944  86.4008 169.2957 0002491  96.0763 264.0718 14.36408680444579
IRIDIUM 33              
1 24946U 97051C   25107.58923716  .00000446  00000+0  15038-3 0  9996
2 24946  86.3924 168.5574 0005542 277.4840  82.5726 14.34851774444054
IRIDIUM 28              
1 24948U 97051E   25107.61647063  .00000632  00000+0  20546-3 0  9997
2 24948  86.4011 166.8435 0001865  91.7581 268.3830 14.37335973445146
IRIDIUM 36              
1 24967U 97056C   25107.31067485  .00000845  00000+0  27555-3 0  9997
2 24967  86.4033 198.5417 0002084 101.3438 258.7994 14.37551310443479
